{
  "type": "FeatureCollection",
  "features": [
    {
      "type": "Feature",
      "properties": {
        "norad_id": 41890,
        "name": "CYGFM07",
        "group": "weather",
        "lat": -7.834000936903383,
        "lon": -112.69142236350702,
        "alt_km": 411.79057011280383,
        "timestamp": "2025-12-07T11:27:49.630110+00:00",
        "meta_object_name": "CYGFM07",
        "meta_object_id": "2016-078G",
        "meta_epoch": "2025-12-06T22:15:49.226112",
        "meta_mean_motion": 15.49652636,
        "meta_eccentricity": 0.0009249,
        "meta_inclination": 34.9482,
        "meta_ra_of_asc_node": 59.5503,
        "meta_arg_of_pericenter": 163.8179,
        "meta_mean_anomaly": 196.284,
        "meta_ephemeris_type": 0,
        "meta_classification_type": "U",
        "meta_norad_cat_id": 41890,
        "meta_element_set_no": 999,
        "meta_rev_at_epoch": 49905,
        "meta_bstar": 0.00051604337,
        "meta_mean_motion_dot": 0.00029579,
        "meta_mean_motion_ddot": 0,
        "tle_line1": "1 41890U 16078G   25340.92765308  .00029579  00000+0  51604-3 0  9998",
        "tle_line2": "2 41890  34.9482  59.5503 0009249 163.8179 196.2840 15.49652636499054"
      },
      "geometry": {
        "type": "Point",
        "coordinates": [
          -112.69142236350702,
          -7.834000936903383
        ]
      }
    },
    {
      "type": "Feature",
      "properties": {
        "norad_id": 41891,
        "name": "CYGFM03",
        "group": "weather",
        "lat": 16.699140640694722,
        "lon": 83.30685498439813,
        "alt_km": 417.7252796224766,
        "timestamp": "2025-12-07T11:27:49.630120+00:00",
        "meta_object_name": "CYGFM03",
        "meta_object_id": "2016-078H",
        "meta_epoch": "2025-12-06T15:14:01.040064",
        "meta_mean_motion": 15.495391,
        "meta_eccentricity": 0.0008508,
        "meta_inclination": 34.9433,
        "meta_ra_of_asc_node": 63.3845,
        "meta_arg_of_pericenter": 147.6188,
        "meta_mean_anomaly": 212.5057,
        "meta_ephemeris_type": 0,
        "meta_classification_type": "U",
        "meta_norad_cat_id": 41891,
        "meta_element_set_no": 999,
        "meta_rev_at_epoch": 49898,
        "meta_bstar": 0.00056634029,
        "meta_mean_motion_dot": 0.00032339,
        "meta_mean_motion_ddot": 0,
        "tle_line1": "1 41891U 16078H   25340.63473426  .00032339  00000+0  56634-3 0  9990",
        "tle_line2": "2 41891  34.9433  63.3845 0008508 147.6188 212.5057 15.49539100498983"
      },
      "geometry": {
        "type": "Point",
        "coordinates": [
          83.30685498439813,
          16.699140640694722
        ]
      }
    },
    {
      "type": "Feature",
      "properties": {
        "norad_id": 43010,
        "name": "FENGYUN 3D",
        "group": "weather",
        "lat": 50.227242474732805,
        "lon": 138.67127203205382,
        "alt_km": 821.6074954300993,
        "timestamp": "2025-12-07T11:27:49.630131+00:00",
        "meta_object_name": "FENGYUN 3D",
        "meta_object_id": "2017-072A",
        "meta_epoch": "2025-12-06T21:19:37.955136",
        "meta_mean_motion": 14.19681264,
        "meta_eccentricity": 7.409e-05,
        "meta_inclination": 98.9886,
        "meta_ra_of_asc_node": 307.1115,
        "meta_arg_of_pericenter": 201.3715,
        "meta_mean_anomaly": 158.7429,
        "meta_ephemeris_type": 0,
        "meta_classification_type": "U",
        "meta_norad_cat_id": 43010,
        "meta_element_set_no": 999,
        "meta_rev_at_epoch": 41770,
        "meta_bstar": 0.00012145711,
        "meta_mean_motion_dot": 2.11e-06,
        "meta_mean_motion_ddot": 0,
        "tle_line1": "1 43010U 17072A   25340.88863374  .00000211  00000+0  12146-3 0  9996",
        "tle_line2": "2 43010  98.9886 307.1115 0000740 201.3715 158.7429 14.19681264417703"
      },
      "geometry": {
        "type": "Point",
        "coordinates": [
          138.67127203205382,
          50.227242474732805
        ]
      }
    },
    {
      "type": "Feature",
      "properties": {
        "norad_id": 43013,
        "name": "NOAA 20 (JPSS-1)",
        "group": "weather",
        "lat": -73.32307320437327,
        "lon": -51.194503228308534,
        "alt_km": 835.7415620280981,
        "timestamp": "2025-12-07T11:27:49.630142+00:00",
        "meta_object_name": "NOAA 20 (JPSS-1)",
        "meta_object_id": "2017-073A",
        "meta_epoch": "2025-12-06T22:17:13.145568",
        "meta_mean_motion": 14.19523249,
        "meta_eccentricity": 0.00021096,
        "meta_inclination": 98.759,
        "meta_ra_of_asc_node": 277.2892,
        "meta_arg_of_pericenter": 95.4546,
        "meta_mean_anomaly": 264.687,
        "meta_ephemeris_type": 0,
        "meta_classification_type": "U",
        "meta_norad_cat_id": 43013,
        "meta_element_set_no": 999,
        "meta_rev_at_epoch": 41719,
        "meta_bstar": 0.00010705697,
        "meta_mean_motion_dot": 1.82e-06,
        "meta_mean_motion_ddot": 0,
        "tle_line1": "1 43013U 17073A   25340.92862437  .00000182  00000+0  10706-3 0  9991",
        "tle_line2": "2 43013  98.7590 277.2892 0002109  95.4546 264.6870 14.19523249417198"
      },
      "geometry": {
        "type": "Point",
        "coordinates": [
          -51.194503228308534,
          -73.32307320437327
        ]
      }
    },
    {
      "type": "Feature",
      "properties": {
        "norad_id": 43226,
        "name": "GOES 17",
        "group": "weather",
        "lat": 0.41759172823976753,
        "lon": 158.91317066387882,
        "alt_km": 35792.3928302844,
        "timestamp": "2025-12-07T11:27:49.630154+00:00",
        "meta_object_name": "GOES 17",
        "meta_object_id": "2018-022A",
        "meta_epoch": "2025-12-06T21:48:02.437920",
        "meta_mean_motion": 1.0027089,
        "meta_eccentricity": 0.00035144,
        "meta_inclination": 0.4441,
        "meta_ra_of_asc_node": 89.2288,
        "meta_arg_of_pericenter": 183.9619,
        "meta_mean_anomaly": 40.2612,
        "meta_ephemeris_type": 0,
        "meta_classification_type": "U",
        "meta_norad_cat_id": 43226,
        "meta_element_set_no": 999,
        "meta_rev_at_epoch": 2849,
        "meta_bstar": 0,
        "meta_mean_motion_dot": -1.77e-06,
        "meta_mean_motion_ddot": 0,
        "tle_line1": "1 43226U 18022A   25340.90836155 -.00000177  00000+0  00000+0 0  9995",
        "tle_line2": "2 43226   0.4441  89.2288 0003514 183.9619  40.2612  1.00270890 28494"
      },
      "geometry": {
        "type": "Point",
        "coordinates": [
          158.91317066387882,
          0.41759172823976753
        ]
      }
    },
    {
      "type": "Feature",
      "properties": {
        "norad_id": 43491,
        "name": "FENGYUN 2H",
        "group": "weather",
        "lat": -2.3322572251160802,
        "lon": -32.171108787919685,
        "alt_km": 35784.62468645308,
        "timestamp": "2025-12-07T11:27:49.630166+00:00",
        "meta_object_name": "FENGYUN 2H",
        "meta_object_id": "2018-050A",
        "meta_epoch": "2025-12-06T22:25:51.770208",
        "meta_mean_motion": 1.00271276,
        "meta_eccentricity": 0.00029164,
        "meta_inclination": 2.5352,
        "meta_ra_of_asc_node": 81.3937,
        "meta_arg_of_pericenter": 165.2651,
        "meta_mean_anomaly": 245.1354,
        "meta_ephemeris_type": 0,
        "meta_classification_type": "U",
        "meta_norad_cat_id": 43491,
        "meta_element_set_no": 999,
        "meta_rev_at_epoch": 2751,
        "meta_bstar": 0,
        "meta_mean_motion_dot": -1.25e-06,
        "meta_mean_motion_ddot": 0,
        "tle_line1": "1 43491U 18050A   25340.93462697 -.00000125  00000+0  00000+0 0  9992",
        "tle_line2": "2 43491   2.5352  81.3937 0002916 165.2651 245.1354  1.00271276 27510"
      },
      "geometry": {
        "type": "Point",
        "coordinates": [
          -32.171108787919685,
          -2.3322572251160802
        ]
      }
    },
    {
      "type": "Feature",
      "properties": {
        "norad_id": 43689,
        "name": "METOP-C",
        "group": "weather",
        "lat": 27.51348162662452,
        "lon": 34.75664221777063,
        "alt_km": 818.0145921721169,
        "timestamp": "2025-12-07T11:27:49.630179+00:00",
        "meta_object_name": "METOP-C",
        "meta_object_id": "2018-087A",
        "meta_epoch": "2025-12-06T21:49:07.543776",
        "meta_mean_motion": 14.21508446,
        "meta_eccentricity": 0.00015787,
        "meta_inclination": 98.6937,
        "meta_ra_of_asc_node": 38.7679,
        "meta_arg_of_pericenter": 52.1262,
        "meta_mean_anomaly": 308.0058,
        "meta_ephemeris_type": 0,
        "meta_classification_type": "U",
        "meta_norad_cat_id": 43689,
        "meta_element_set_no": 999,
        "meta_rev_at_epoch": 36751,
        "meta_bstar": 0.00014605535,
        "meta_mean_motion_dot": 2.76e-06,
        "meta_mean_motion_ddot": 0,
        "tle_line1": "1 43689U 18087A   25340.90911509  .00000276  00000+0  14606-3 0  9996",
        "tle_line2": "2 43689  98.6937  38.7679 0001578  52.1262 308.0058 14.21508446367514"
      },
      "geometry": {
        "type": "Point",
        "coordinates": [
          34.75664221777063,
          27.51348162662452
        ]
      }
    }
  ]
}